{
  "60332": {
    "noradId": "60332",
    "tle": [
      "1 60332C 24136D   25340.80118056 -.00000313  00000+0 -10556-4 0  3402",
      "2 60332  53.1584 146.9069 0001286  88.7444   2.5886 15.30189615    18"
    ]
  },
  "60333": {
    "noradId": "60333",
    "tle": [
      "1 60333C 24136E   25340.78590278 -.00007140  00000+0 -24042-3 0  3409",
      "2 60333  53.1566 147.4374 0001398 101.7930  26.7376 15.30228640    18"
    ]
  },
  "60334": {
    "noradId": "60334",
    "tle": [
      "1 60334C 24136F   25340.79909722  .00003771  00000+0  12708-3 0  3409",
      "2 60334  53.1575 147.3053 0001144  75.6036 160.6449 15.30195209    10"
    ]
  },
  "60335": {
    "noradId": "60335",
    "tle": [
      "1 60335C 24136G   25340.79631944 -.00001359  00000+0 -45801-4 0  3401",
      "2 60335  53.1579 147.2829 0001251  85.0937 153.3438 15.30183948    13"
    ]
  },
  "60336": {
    "noradId": "60336",
    "tle": [
      "1 60336C 24136H   25340.80048611 -.00007959  00000+0 -26843-3 0  3403",
      "2 60336  53.1579 147.2293 0001163  98.5365 180.4147 15.30176056    15"
    ]
  },
  "60338": {
    "noradId": "60338",
    "tle": [
      "1 60338C 24136K   25340.79909722 -.00006211  00000+0 -20935-3 0  3408",
      "2 60338  53.1581 147.1897 0001257  87.7556 206.6936 15.30193481    13"
    ]
  },
  "60339": {
    "noradId": "60339",
    "tle": [
      "1 60339C 24136L   25340.79562500 -.00009334  00000+0 -31453-3 0  3404",
      "2 60339  53.1580 147.1836 0001291  76.2721 210.6364 15.30205494    19"
    ]
  },
  "60340": {
    "noradId": "60340",
    "tle": [
      "1 60340C 24136M   25340.79631944 -.00001815  00000+0 -61192-4 0  3405",
      "2 60340  53.1583 147.1454 0001297  86.5599 221.6671 15.30187065    19"
    ]
  },
  "60341": {
    "noradId": "60341",
    "tle": [
      "1 60341C 24136N   25340.79562500  .00006787  00000+0  22878-3 0  3405",
      "2 60341  53.1587 147.0673 0001153  89.9353 255.1810 15.30177942    12"
    ]
  },
  "60342": {
    "noradId": "60342",
    "tle": [
      "1 60342C 24136P   25340.80118056 -.00021927  00000+0 -73866-3 0  3409",
      "2 60342  53.1586 147.0763 0001312  71.9289 286.2827 15.30229214    11"
    ]
  },
  "60343": {
    "noradId": "60343",
    "tle": [
      "1 60343C 24136Q   25340.80118056 -.00011176  00000+0 -37670-3 0  3408",
      "2 60343  53.1585 147.0534 0001268  88.4955 263.9904 15.30200565    16"
    ]
  },
  "60344": {
    "noradId": "60344",
    "tle": [
      "1 60344C 24136R   25340.79909722  .00006295  00000+0  21221-3 0  3404",
      "2 60344  53.1588 147.0168 0001347  89.0648 292.6468 15.30177375    13"
    ]
  },
  "60345": {
    "noradId": "60345",
    "tle": [
      "1 60345C 24136S   25340.80048611 -.00006160  00000+0 -20760-3 0  3408",
      "2 60345  53.1587 146.9633 0001269  88.9889 323.6201 15.30197464    17"
    ]
  },
  "60346": {
    "noradId": "60346",
    "tle": [
      "1 60346C 24136T   25340.79840278 -.00016880  00000+0 -56890-3 0  3409",
      "2 60346  53.1589 146.9854 0001910  98.2010 297.0976 15.30207640    19"
    ]
  },
  "60347": {
    "noradId": "60347",
    "tle": [
      "1 60347C 24136U   25340.79562500 -.00002443  00000+0 -82356-4 0  3406",
      "2 60347  53.1587 146.9627 0001502  83.4590 314.0105 15.30187196    19"
    ]
  },
  "60348": {
    "noradId": "60348",
    "tle": [
      "1 60348C 24136V   25340.80187500 -.00001655  00000+0 -55765-4 0  3400",
      "2 60348  53.1586 146.8993 0001261  91.5512 357.7982 15.30193557    15"
    ]
  },
  "60349": {
    "noradId": "60349",
    "tle": [
      "1 60349C 24136W   25340.79770833 -.00002723  00000+0 -91777-4 0  3406",
      "2 60349  53.1574 146.8139 0001252  87.6680  31.0798 15.30189755    19"
    ]
  },
  "60350": {
    "noradId": "60350",
    "tle": [
      "1 60350C 24136X   25340.80118056 -.00006797  00000+0 -22909-3 0  3408",
      "2 60350  53.1577 146.8328 0001339  80.8913  39.5353 15.30197806    10"
    ]
  },
  "60351": {
    "noradId": "60351",
    "tle": [
      "1 60351C 24136Y   25340.79631944 -.00001121  00000+0 -37801-4 0  3407",
      "2 60351  53.1570 146.7852 0001259  87.6974  40.8466 15.30186564    17"
    ]
  },
  "60355": {
    "noradId": "60355",
    "tle": [
      "1 60355C 24138A   25340.79562500 -.00009810  00000+0 -33067-3 0  3406",
      "2 60355  53.1584  20.7575 0001418  84.8190 137.3895 15.30198232    18"
    ]
  },
  "60356": {
    "noradId": "60356",
    "tle": [
      "1 60356C 24138B   25340.80048611 -.00001286  00000+0 -43340-4 0  3406",
      "2 60356  53.1576  21.3996 0001530  92.9905 172.8522 15.30187726    10"
    ]
  },
  "60358": {
    "noradId": "60358",
    "tle": [
      "1 60358C 24138D   25340.79909722 -.00003762  00000+0 -12679-3 0  3406",
      "2 60358  53.1576  21.3833 0001408  87.4094 188.2191 15.30190888    10"
    ]
  },
  "60359": {
    "noradId": "60359",
    "tle": [
      "1 60359C 24138E   25340.79701389  .00000441  00000+0  14858-4 0  3407",
      "2 60359  53.1576  21.4156 0001172  87.6660 164.8340 15.30191610    19"
    ]
  },
  "60360": {
    "noradId": "60360",
    "tle": [
      "1 60360C 24138F   25340.80118056 -.00011459  00000+0 -38629-3 0  3408",
      "2 60360  53.1602  21.0731 0001394  92.0622 346.2791 15.30196438    19"
    ]
  },
  "60361": {
    "noradId": "60361",
    "tle": [
      "1 60361C 24138G   25340.79701389 -.00007818  00000+0 -26349-3 0  3404",
      "2 60361  53.1581  21.3348 0001248  93.2781 194.1284 15.30200571    11"
    ]
  },
  "60362": {
    "noradId": "60362",
    "tle": [
      "1 60362C 24138H   25340.80048611 -.00011837  00000+0 -39895-3 0  3405",
      "2 60362  53.1576  21.3759 0001280  92.9603 184.5065 15.30203992    17"
    ]
  },
  "60363": {
    "noradId": "60363",
    "tle": [
      "1 60363C 24138J   25340.80187500 -.00006933  00000+0 -23369-3 0  3407",
      "2 60363  53.1586  21.2638 0001131  91.8471 251.4319 15.30195087    11"
    ]
  },
  "60364": {
    "noradId": "60364",
    "tle": [
      "1 60364C 24138K   25340.79701389 -.00005553  00000+0 -18715-3 0  3409",
      "2 60364  53.1596  21.1973 0001242  86.9489 276.0713 15.30195711    16"
    ]
  },
  "60365": {
    "noradId": "60365",
    "tle": [
      "1 60365C 24138L   25340.79562500 -.00009272  00000+0 -31257-3 0  3408",
      "2 60365  53.1599  21.1328 0001347  96.4041 293.8669 15.30192950    19"
    ]
  },
  "60366": {
    "noradId": "60366",
    "tle": [
      "1 60366C 24138M   25340.79562500 -.00006232  00000+0 -21002-3 0  3409",
      "2 60366  53.1587  21.2715 0001099  92.5215 227.9350 15.30199387    18"
    ]
  },
  "60367": {
    "noradId": "60367",
    "tle": [
      "1 60367C 24138N   25340.79909722 -.00014479  00000+0 -48804-3 0  3402",
      "2 60367  53.1597  21.1373 0001367  87.6280 310.1444 15.30202931    13"
    ]
  },
  "60368": {
    "noradId": "60368",
    "tle": [
      "1 60368C 24138P   25340.79770833 -.00004660  00000+0 -15705-3 0  3407",
      "2 60368  53.1579  21.3649 0001270  86.5619 193.0444 15.30194041    19"
    ]
  },
  "60369": {
    "noradId": "60369",
    "tle": [
      "1 60369C 24138Q   25340.79909722  .00240090  00000+0  56409-2 0  3401",
      "2 60369  53.1510   7.2276 0010216  55.9525  73.8840 15.41138062    18"
    ]
  },
  "60370": {
    "noradId": "60370",
    "tle": [
      "1 60370C 24138R   25340.79840278 -.00011072  00000+0 -37318-3 0  3400",
      "2 60370  53.1593  21.2094 0001220  83.7944 275.2456 15.30201927    14"
    ]
  },
  "60371": {
    "noradId": "60371",
    "tle": [
      "1 60371C 24138S   25340.79770833 -.00066007  00000+0 -22234-2 0  3408",
      "2 60371  53.1588  20.7804 0001637  94.1554 122.0034 15.30275360    10"
    ]
  },
  "60372": {
    "noradId": "60372",
    "tle": [
      "1 60372C 24138T   25340.79770833 -.00008548  00000+0 -28815-3 0  3407",
      "2 60372  53.1577  21.3747 0001332  92.4238 181.3693 15.30192817    18"
    ]
  },
  "60373": {
    "noradId": "60373",
    "tle": [
      "1 60373C 24138U   25340.79909722 -.00013284  00000+0 -44775-3 0  3405",
      "2 60373  53.1597  21.1498 0001955  88.8675 303.0895 15.30202550    10"
    ]
  },
  "60374": {
    "noradId": "60374",
    "tle": [
      "1 60374C 24138V   25340.79840278 -.00019319  00000+0 -65120-3 0  3408",
      "2 60374  53.1596  21.1736 0001261  89.0562 287.4482 15.30207008    13"
    ]
  },
  "60375": {
    "noradId": "60375",
    "tle": [
      "1 60375C 24138W   25340.79562500 -.00013641  00000+0 -45978-3 0  3409",
      "2 60375  53.1596  20.8926 0001269  84.4468  67.9639 15.30202982    14"
    ]
  },
  "60376": {
    "noradId": "60376",
    "tle": [
      "1 60376C 24138X   25340.79770833 -.00020383  00000+0 -68711-3 0  3401",
      "2 60376  53.1588  21.2454 0001329  95.0547 242.7148 15.30206061    10"
    ]
  },
  "60377": {
    "noradId": "60377",
    "tle": [
      "1 60377C 24138Y   25340.80048611  .00053737  00000+0  18109-2 0  3408",
      "2 60377  53.1602  21.0607 0001396  91.8202 348.4243 15.30141780    18"
    ]
  },
  "60398": {
    "noradId": "60398",
    "tle": [
      "1 60398C 24141A   25340.82479167  .00006895  00000+0  56818-4 0  3405",
      "2 60398  53.1568 184.0717 0001044  89.3920  38.4786 15.69694401    16"
    ]
  },
  "60399": {
    "noradId": "60399",
    "tle": [
      "1 60399C 24141B   25340.82548611  .00012001  00000+0  98898-4 0  3407",
      "2 60399  53.1570 183.8987 0000804  78.0011 137.0094 15.69688528    16"
    ]
  },
  "60400": {
    "noradId": "60400",
    "tle": [
      "1 60400C 24141C   25340.82340278 -.00037830  00000+0 -31147-3 0  3401",
      "2 60400  53.1569 183.8520 0001721  95.7196 135.1721 15.69757077    11"
    ]
  },
  "60401": {
    "noradId": "60401",
    "tle": [
      "1 60401C 24141D   25340.82479167 -.00088487  00000+0 -72955-3 0  3408",
      "2 60401  53.1568 183.7875 0001068  97.6053 168.9931 15.69776168    19"
    ]
  }
}